ZACUBE-2                
1 43907U 18111AH  22324.41308167  .00009687  00000+0  32884-3 0  9995
2 43907  97.1656 205.2106 0016547 242.5458 221.5382 15.30568985217124
LUME 1                  
1 43908U 18111AJ  22323.65383862  .00011698  00000+0  35689-3 0  9997
2 43908  97.1682 206.6825 0014729 235.5359 124.4494 15.33973391217151
AOBA VELOX-IV           
1 43940U 19003J   22324.53439309  .00032805  00000+0  63550-3 0  9991
2 43940  97.1108 356.5446 0011510 302.7375  57.2766 15.47572586214174
MOVE-IIB                
1 44398U 19038N   22323.87946373  .00017069  00000+0  72160-3 0  9999
2 44398  97.6460 295.2026 0018361 317.7360  42.2447 15.23144185186657
SONATE                  
1 44400U 19038Q   22323.90201977  .00006297  00000+0  32620-3 0  9999
2 44400  97.6596 293.4185 0021701 322.3094  37.6618 15.16358377186475
LUCKY-7                 
1 44406U 19038W   22324.18729000  .00006912  00000+0  34514-3 0  9996
2 44406  97.6583 294.4307 0020254 318.0763  41.8918 15.17642654186566
BEESAT 9                
1 44412U 19038AC  22324.47286066  .00010192  00000+0  47617-3 0  9998
2 44412  97.6545 295.3365 0017503 321.2475  38.7503 15.19870714186369
JAISAT-1                
1 44419U 19038F   22324.14706562  .00009932  00000+0  45835-3 0  9997
2 44419  97.6542 295.9626 0016477 319.5519  40.4490 15.20318607186687
DUCHIFAT-3              
1 44854U 19089C   22324.20037122  .00004815  00000+0  36264-3 0  9993
2 44854  36.9644 256.2825 0006986  35.1612 107.7480 15.02361788161350
EYESAT-NANO             
1 44877U 19092E   22323.46390058  .00015160  00000+0  58585-3 0  9994
2 44877  97.4605 147.1183 0010684 166.7844 193.3676 15.26285000161971
ORBITAL FACTORY 2 (OF-2)
1 45113U 19071C   22324.54438038  .00042423  00000+0  58323-3 0  9998
2 45113  51.6353   6.2541 0011441  24.9019 335.2522 15.56784141157583
M2 PATHFINDER           
1 45727U 20037E   22324.45800115  .00001889  00000+0  18936-3 0  9999
2 45727  97.7414 137.2169 0011490 237.3249 122.6838 14.92505110130094
NETSAT-4                
1 46504U 20068U   22323.80863301  .00002758  00000+0  20143-3 0  9990
2 46504  97.7387 263.4876 0011959 150.2081 209.9832 15.04452501117391
NETSAT-3                
1 46505U 20068V   22323.82861899  .00003128  00000+0  22817-3 0  9995
2 46505  97.7391 263.4008 0011089 158.2337 201.9349 15.04413971117405
NETSAT-1                
1 46506U 20068W   22323.78446582  .00004012  00000+0  29187-3 0  9999
2 46506  97.7371 263.2714 0009234 169.6001 190.5420 15.04355519117393
NETSAT-2                
1 46507U 20068X   22323.79554392  .00003204  00000+0  23411-3 0  9996
2 46507  97.7379 263.2755 0007617 175.1732 184.9624 15.04346976117348
SAI-1 NANOCONNECT-2     
1 47701U 21015C   22324.19269821  .00013783  00000+0  45439-3 0  9998
2 47701  97.4115  40.6314 0009117 259.4928 100.5286 15.31527770 96019
WILDTRACKCUBE-SIMBA     
1 47941U 21022K   22324.41262635  .00004503  00000+0  29151-3 0  9996
2 47941  97.5141 220.5649 0020381 338.3808 132.5406 15.08488673 91493
BEESAT-6                
1 47957U 21022AB  22324.51643811  .00009122  00000+0  54775-3 0  9995
2 47957  97.5122 221.1300 0019288 337.9158 148.0063 15.10975938 91340
SMOG-1                  
1 47964U 21022AJ  22324.12868730  .00008054  00000+0  46432-3 0  9993
2 47964  97.5155 222.1644 0016722 328.4228  31.5998 15.12526974 90390
MMSATS-1                
1 47976U 98067SJ  22324.41106662  .00045381  00000+0  38386-3 0  9993
2 47976  51.6380 257.0415 0003283 117.4985 338.5522 15.69255116 94656
BCCSAT-1                
1 48041U 21022AK  22323.28328927  .00007424  00000+0  44211-3 0  9998
2 48041  97.5148 220.7432 0013727 331.2413  28.8059 15.11421972 90206
BEESAT-5                
1 48083U 21022AM  22324.22450164  .00009183  00000+0  54457-3 0  9995
2 48083  97.5089 220.8758 0019511 339.8613 176.4137 15.11424654 90433
BEESAT-7                
1 48084U 21022AN  22323.95850968  .00008464  00000+0  50583-3 0  9998
2 48084  97.5098 220.6077 0019559 340.1705  74.8850 15.11165147 89985
BEESAT-8                
1 48085U 21022AP  22324.19517640  .00007143  00000+0  43383-3 0  9996
2 48085  97.5109 220.7990 0019611 339.0423 172.7657 15.10636016 90574
LEDSAT                  
1 49069U 21073D   22324.18822617  .00004222  00000+0  26107-3 0  9997
2 49069  97.5104  33.9850 0027640 119.1923 241.2076 15.10060981 69322
HSU-SAT1                
1 53462U 98067UB  22324.15565059  .00052087  00000+0  61803-3 0  9991
2 53462  51.6371 280.2977 0009668 119.7691 240.4265 15.60619972 15536
FUTABA                  
1 53463U 98067UC  22323.58981846  .00069924  00000+0  75794-3 0  9996
2 53463  51.6356 282.5154 0010319 115.8398 244.3662 15.62826830 15458
TUMNANOSAT              
1 53464U 98067UD  22323.98372096  .00089160  00000+0  87420-3 0  9995
2 53464  51.6356 279.8936 0011047 118.2475 241.9637 15.65257880 15527
BEIJING 1               
1 28890U 05043A   22324.29827401  .00000275  00000+0  64765-4 0  9990
2 28890  98.1363  84.0061 0016086  50.2194 310.0440 14.61545336909907
HJ-1A                   
1 33320U 08041A   22324.54706011  .00000407  00000+0  62982-4 0  9992
2 33320  97.6644 350.1850 0022521  84.1383 276.2394 14.77991461765448
HJ-1B                   
1 33321U 08041B   22324.56581772  .00000906  00000+0  13093-3 0  9992
2 33321  97.6798 354.0811 0035586 101.9372 258.5829 14.78033770765447
YAOGAN 4                
1 33446U 08061A   22324.41588679  .00000634  00000+0  95578-4 0  9996
2 33446  97.8315 259.9039 0016081 354.8048   5.2994 14.77584969752621
DEIMOS-1                
1 35681U 09041A   22324.52610240  .00000381  00000+0  67768-4 0  9999
2 35681  97.6951 167.4644 0002896  82.5367 277.6179 14.72177635714734
UK-DMC 2                
1 35683U 09041C   22324.48119533  .00000630  00000+0  10873-3 0  9996
2 35683  97.7095 129.2473 0001720  94.8351 265.3056 14.71600540714458
RISAT 1                 
1 38248U 12017A   22324.54008591  .00003141  00000+0  18143-3 0  9999
2 38248  97.5505 334.2731 0005772  83.6856 276.5032 15.13032705582432
DMC3-FM1                
1 40715U 15032A   22324.54744268  .00000498  00000+0  68844-4 0  9995
2 40715  97.8235 208.1123 0006598  23.3306 336.8180 14.82284184396419
DMC3-FM2                
1 40716U 15032B   22324.50322432  .00000502  00000+0  69389-4 0  9998
2 40716  97.8279 208.7917 0008607  23.4394 336.7182 14.82277104396411
DMC3-FM3                
1 40717U 15032C   22324.52358111  .00000985  00000+0  12978-3 0  9990
2 40717  97.8314 209.7931 0009948  19.7718 340.3818 14.82276647396414
NOAA 15                 
1 25338U 98030A   22324.45088275  .00000152  00000+0  81845-4 0  9990
2 25338  98.6300 351.8457 0010072 197.2227 162.8613 14.26198320275504
DMSP 5D-3 F15 (USA 147) 
1 25991U 99067A   22323.87737453  .00000133  00000+0  89799-4 0  9995
2 25991  99.0640 318.2003 0011037 106.8707  10.7853 14.16600203185779
DMSP 5D-3 F16 (USA 172) 
1 28054U 03048A   22324.46535376  .00000098  00000+0  75729-4 0  9996
2 28054  99.0013 316.1770 0006517 232.9243 290.0411 14.13708709985067
NOAA 18                 
1 28654U 05018A   22324.43981659  .00000183  00000+0  12266-3 0  9998
2 28654  98.9346  34.6373 0013427 248.8440 111.1297 14.12809833902090
METEOSAT-9 (MSG-2)      
1 28912U 05049B   22323.84223244  .00000149  00000+0  00000+0 0  9993
2 28912   6.3673  65.2491 0001320 184.1202 158.3526  1.00270761 61944
EWS-G1 (GOES 13)        
1 29155U 06018A   22323.85988017  .00000059  00000+0  00000+0 0  9997
2 29155   0.9671  94.0216 0006689 141.4056 194.3235  1.00271602 30288
DMSP 5D-3 F17 (USA 191) 
1 29522U 06050A   22324.44656318  .00000133  00000+0  92371-4 0  9993
2 29522  98.7628 336.5545 0010012 171.6674 188.4667 14.14139107827951
FENGYUN 3A              
1 32958U 08026A   22324.46915825  .00000099  00000+0  67729-4 0  9998
2 32958  98.5256 280.8820 0007759 296.1954  63.8424 14.18763057750456
FENGYUN 2E              
1 33463U 08066A   22323.85033878 -.00000183  00000+0  00000+0 0  9994
2 33463   6.2496  64.3717 0001072 250.1169 137.0608  1.00279488 51000
NOAA 19                 
1 33591U 09005A   22324.52982588  .00000185  00000+0  12494-3 0  9991
2 33591  99.1309   1.8229 0014804 108.9124 251.3653 14.12640265710484
GOES 14                 
1 35491U 09033A   22323.52543640 -.00000074  00000+0  00000+0 0  9998
2 35491   0.2292 264.2786 0018229 317.5642 281.6694  1.00272395 49013
METEOR-M 1              
1 35865U 09049A   22324.49339760  .00000094  00000+0  61365-4 0  9990
2 35865  98.5509 290.0890 0003163 117.8222 242.3277 14.22380112683861
DMSP 5D-3 F18 (USA 210) 
1 35951U 09057A   22324.55302775  .00000191  00000+0  12438-3 0  9992
2 35951  98.7424 300.2371 0011400   7.9638 352.1714 14.13590808675161
GOES 15                 
1 36411U 10008A   22323.60469306  .00000074  00000+0  00000+0 0  9999
2 36411   0.1878 281.1435 0003393 276.4560 310.5051  1.00277067 46570
COMS 1                  
1 36744U 10032A   22323.78696987 -.00000323  00000+0  00000+0 0  9999
2 36744   1.4705  91.7578 0000822 147.8073 230.7196  1.00272876 38004
FENGYUN 3B              
1 37214U 10059A   22324.34945361  .00000020  00000+0  34626-4 0  9996
2 37214  99.0935 333.1032 0021183 275.7897  84.0866 14.14274923622996
SUOMI NPP               
1 37849U 11061A   22324.47449891  .00000077  00000+0  57260-4 0  9996
2 37849  98.7472 260.9434 0001041  89.9189  21.0001 14.19562290573321
FENGYUN 2F              
1 38049U 12002A   22323.81986133 -.00000336  00000+0  00000+0 0  9991
2 38049   4.1693  78.4669 0002460 271.6184 116.2077  1.00276453 39790
METEOSAT-10 (MSG-3)     
1 38552U 12035B   22324.19366303  .00000084  00000+0  00000+0 0  9998
2 38552   1.7747  48.8806 0001630 142.6615 306.9587  1.00270326 38134
METOP-B                 
1 38771U 12049A   22324.46739913  .00000097  00000+0  64502-4 0  9993
2 38771  98.7105  22.0075 0000453  70.4113 356.0948 14.21495416527895
